[{"OBJECT_NAME":"ONEWEB-0237","OBJECT_ID":"2021-045D","EPOCH":"2026-02-12T04:35:41.782848","MEAN_MOTION":13.15549633,"ECCENTRICITY":0.0001275,"INCLINATION":87.8975,"RA_OF_ASC_NODE":284.1675,"ARG_OF_PERICENTER":88.2623,"MEAN_ANOMALY":271.8653,"EPHEMERIS_TYPE":0,"CLASSIFICATION_TYPE":"U","NORAD_CAT_ID":48770,"ELEMENT_SET_NO":999,"REV_AT_EPOCH":22795,"BSTAR":0.00033163961,"MEAN_MOTION_DOT":1.38e-6,"MEAN_MOTION_DDOT":0},{"OBJECT_NAME":"ONEWEB-0235","OBJECT_ID":"2021-045E","EPOCH":"2026-02-12T03:59:11.351040","MEAN_MOTION":13.15549947,"ECCENTRICITY":0.00011892,"INCLINATION":87.8982,"RA_OF_ASC_NODE":284.1469,"ARG_OF_PERICENTER":94.0022,"MEAN_ANOMALY":266.1244,"EPHEMERIS_TYPE":0,"CLASSIFICATION_TYPE":"U","NORAD_CAT_ID":48771,"ELEMENT_SET_NO":999,"REV_AT_EPOCH":22794,"BSTAR":-0.00012172162,"MEAN_MOTION_DOT":-3.3e-7,"MEAN_MOTION_DDOT":0},{"OBJECT_NAME":"ONEWEB-0242","OBJECT_ID":"2021-045F","EPOCH":"2026-02-12T03:50:03.802272","MEAN_MOTION":13.15549603,"ECCENTRICITY":0.00013519,"INCLINATION":87.8983,"RA_OF_ASC_NODE":284.1439,"ARG_OF_PERICENTER":78.7449,"MEAN_ANOMALY":281.3834,"EPHEMERIS_TYPE":0,"CLASSIFICATION_TYPE":"U","NORAD_CAT_ID":48772,"ELEMENT_SET_NO":999,"REV_AT_EPOCH":22798,"BSTAR":-4.2410089e-5,"MEAN_MOTION_DOT":-3.0e-8,"MEAN_MOTION_DDOT":0},{"OBJECT_NAME":"ONEWEB-0241","OBJECT_ID":"2021-045G","EPOCH":"2026-02-12T03:31:48.331488","MEAN_MOTION":13.15549667,"ECCENTRICITY":0.00014461,"INCLINATION":87.8975,"RA_OF_ASC_NODE":284.1771,"ARG_OF_PERICENTER":97.1367,"MEAN_ANOMALY":262.9928,"EPHEMERIS_TYPE":0,"CLASSIFICATION_TYPE":"U","NORAD_CAT_ID":48773,"ELEMENT_SET_NO":999,"REV_AT_EPOCH":22789,"BSTAR":-0.00021595762,"MEAN_MOTION_DOT":-6.8e-7,"MEAN_MOTION_DDOT":0},{"OBJECT_NAME":"ONEWEB-0243","OBJECT_ID":"2021-045H","EPOCH":"2026-02-12T04:17:26.106432","MEAN_MOTION":13.15550149,"ECCENTRICITY":0.00011356,"INCLINATION":87.8974,"RA_OF_ASC_NODE":284.182,"ARG_OF_PERICENTER":86.0851,"MEAN_ANOMALY":274.0409,"EPHEMERIS_TYPE":0,"CLASSIFICATION_TYPE":"U","NORAD_CAT_ID":48774,"ELEMENT_SET_NO":999,"REV_AT_EPOCH":22792,"BSTAR":0.00027470623,"MEAN_MOTION_DOT":1.16e-6,"MEAN_MOTION_DDOT":0},{"OBJECT_NAME":"ONEWEB-0222","OBJECT_ID":"2021-045J","EPOCH":"2026-02-12T03:53:28.260960","MEAN_MOTION":13.15549307,"ECCENTRICITY":0.0001435,"INCLINATION":87.8985,"RA_OF_ASC_NODE":284.1431,"ARG_OF_PERICENTER":86.3913,"MEAN_ANOMALY":273.7382,"EPHEMERIS_TYPE":0,"CLASSIFICATION_TYPE":"U","NORAD_CAT_ID":48775,"ELEMENT_SET_NO":999,"REV_AT_EPOCH":22796,"BSTAR":-0.0003926568,"MEAN_MOTION_DOT":-1.35e-6,"MEAN_MOTION_DDOT":0},{"OBJECT_NAME":"ONEWEB-0244","OBJECT_ID":"2021-045K","EPOCH":"2026-02-12T04:31:08.172192","MEAN_MOTION":13.15549666,"ECCENTRICITY":0.00013855,"INCLINATION":87.8984,"RA_OF_ASC_NODE":284.1279,"ARG_OF_PERICENTER":85.9785,"MEAN_ANOMALY":274.1504,"EPHEMERIS_TYPE":0,"CLASSIFICATION_TYPE":"U","NORAD_CAT_ID":48776,"ELEMENT_SET_NO":999,"REV_AT_EPOCH":22853,"BSTAR":0.00047319203,"MEAN_MOTION_DOT":1.91e-6,"MEAN_MOTION_DDOT":0},{"OBJECT_NAME":"ONEWEB-0247","OBJECT_ID":"2021-045L","EPOCH":"2026-02-12T04:26:32.763552","MEAN_MOTION":13.15551571,"ECCENTRICITY":6.756e-5,"INCLINATION":87.897,"RA_OF_ASC_NODE":284.1749,"ARG_OF_PERICENTER":103.0662,"MEAN_ANOMALY":257.0544,"EPHEMERIS_TYPE":0,"CLASSIFICATION_TYPE":"U","NORAD_CAT_ID":48777,"ELEMENT_SET_NO":999,"REV_AT_EPOCH":22797,"BSTAR":0.00036963958,"MEAN_MOTION_DOT":1.52e-6,"MEAN_MOTION_DDOT":0},{"OBJECT_NAME":"ONEWEB-0245","OBJECT_ID":"2021-045M","EPOCH":"2026-02-12T02:30:12.271680","MEAN_MOTION":13.15549238,"ECCENTRICITY":0.00015669,"INCLINATION":87.8978,"RA_OF_ASC_NODE":284.1606,"ARG_OF_PERICENTER":90.9529,"MEAN_ANOMALY":269.1781,"EPHEMERIS_TYPE":0,"CLASSIFICATION_TYPE":"U","NORAD_CAT_ID":48778,"ELEMENT_SET_NO":999,"REV_AT_EPOCH":22793,"BSTAR":0.00035721885,"MEAN_MOTION_DOT":1.47e-6,"MEAN_MOTION_DDOT":0},{"OBJECT_NAME":"ONEWEB-0229","OBJECT_ID":"2021-045N","EPOCH":"2026-02-12T04:12:52.627968","MEAN_MOTION":13.15549913,"ECCENTRICITY":0.00014017,"INCLINATION":87.8981,"RA_OF_ASC_NODE":284.1439,"ARG_OF_PERICENTER":80.403,"MEAN_ANOMALY":279.7258,"EPHEMERIS_TYPE":0,"CLASSIFICATION_TYPE":"U","NORAD_CAT_ID":48779,"ELEMENT_SET_NO":999,"REV_AT_EPOCH":22797,"BSTAR":0.00017919395,"MEAN_MOTION_DOT":8.0e-7,"MEAN_MOTION_DDOT":0},{"OBJECT_NAME":"ONEWEB-0228","OBJECT_ID":"2021-045P","EPOCH":"2026-02-12T03:11:28.163040","MEAN_MOTION":13.15549258,"ECCENTRICITY":0.00014169,"INCLINATION":87.899,"RA_OF_ASC_NODE":284.1399,"ARG_OF_PERICENTER":84.4408,"MEAN_ANOMALY":275.6884,"EPHEMERIS_TYPE":0,"CLASSIFICATION_TYPE":"U","NORAD_CAT_ID":48780,"ELEMENT_SET_NO":999,"REV_AT_EPOCH":22788,"BSTAR":0.00010940322,"MEAN_MOTION_DOT":5.4e-7,"MEAN_MOTION_DDOT":0},{"OBJECT_NAME":"ONEWEB-0232","OBJECT_ID":"2021-045Q","EPOCH":"2026-02-12T04:24:17.303040","MEAN_MOTION":13.15549348,"ECCENTRICITY":0.00014927,"INCLINATION":87.8991,"RA_OF_ASC_NODE":284.1271,"ARG_OF_PERICENTER":83.8022,"MEAN_ANOMALY":276.3279,"EPHEMERIS_TYPE":0,"CLASSIFICATION_TYPE":"U","NORAD_CAT_ID":48781,"ELEMENT_SET_NO":999,"REV_AT_EPOCH":22821,"BSTAR":0.00034883132,"MEAN_MOTION_DOT":1.44e-6,"MEAN_MOTION_DDOT":0},{"OBJECT_NAME":"ONEWEB-0231","OBJECT_ID":"2021-045R","EPOCH":"2026-02-12T03:52:21.317376","MEAN_MOTION":13.15549777,"ECCENTRICITY":0.00013839,"INCLINATION":87.8977,"RA_OF_ASC_NODE":284.1631,"ARG_OF_PERICENTER":91.8102,"MEAN_ANOMALY":268.3187,"EPHEMERIS_TYPE":0,"CLASSIFICATION_TYPE":"U","NORAD_CAT_ID":48782,"ELEMENT_SET_NO":999,"REV_AT_EPOCH":22790,"BSTAR":-8.0551133e-5,"MEAN_MOTION_DOT":-1.8e-7,"MEAN_MOTION_DDOT":0},{"OBJECT_NAME":"ONEWEB-0234","OBJECT_ID":"2021-045S","EPOCH":"2026-02-12T04:46:55.380576","MEAN_MOTION":13.15548728,"ECCENTRICITY":0.00023314,"INCLINATION":87.8979,"RA_OF_ASC_NODE":284.1324,"ARG_OF_PERICENTER":94.2006,"MEAN_ANOMALY":265.9391,"EPHEMERIS_TYPE":0,"CLASSIFICATION_TYPE":"U","NORAD_CAT_ID":48783,"ELEMENT_SET_NO":999,"REV_AT_EPOCH":22804,"BSTAR":0.00029847948,"MEAN_MOTION_DOT":1.25e-6,"MEAN_MOTION_DDOT":0},{"OBJECT_NAME":"ONEWEB-0238","OBJECT_ID":"2021-045T","EPOCH":"2026-02-12T04:47:18.120192","MEAN_MOTION":13.15548686,"ECCENTRICITY":0.00018891,"INCLINATION":87.8984,"RA_OF_ASC_NODE":284.1256,"ARG_OF_PERICENTER":84.9913,"MEAN_ANOMALY":275.1433,"EPHEMERIS_TYPE":0,"CLASSIFICATION_TYPE":"U","NORAD_CAT_ID":48784,"ELEMENT_SET_NO":999,"REV_AT_EPOCH":22794,"BSTAR":0.00025932423,"MEAN_MOTION_DOT":1.1e-6,"MEAN_MOTION_DDOT":0},{"OBJECT_NAME":"ONEWEB-0240","OBJECT_ID":"2021-045U","EPOCH":"2026-02-12T03:28:22.448928","MEAN_MOTION":13.15546787,"ECCENTRICITY":0.00015034,"INCLINATION":87.8985,"RA_OF_ASC_NODE":284.1361,"ARG_OF_PERICENTER":97.1623,"MEAN_ANOMALY":262.9679,"EPHEMERIS_TYPE":0,"CLASSIFICATION_TYPE":"U","NORAD_CAT_ID":48785,"ELEMENT_SET_NO":999,"REV_AT_EPOCH":22796,"BSTAR":-0.00023483622,"MEAN_MOTION_DOT":-7.6e-7,"MEAN_MOTION_DDOT":0}]
