ONEWEB-0237             
1 48770U 21045D   26043.19145582  .00000138  00000+0  33164-3 0  9999
2 48770  87.8975 284.1675 0001275  88.2623 271.8653 13.15549633227956
ONEWEB-0235             
1 48771U 21045E   26043.16610360 -.00000033  00000+0 -12172-3 0  9990
2 48771  87.8982 284.1469 0001189  94.0022 266.1244 13.15549947227948
ONEWEB-0242             
1 48772U 21045F   26043.15976623 -.00000003  00000+0 -42410-4 0  9993
2 48772  87.8983 284.1439 0001351  78.7449 281.3834 13.15549603227987
ONEWEB-0241             
1 48773U 21045G   26043.14708717 -.00000068  00000+0 -21596-3 0  9992
2 48773  87.8975 284.1771 0001446  97.1367 262.9928 13.15549667227896
ONEWEB-0243             
1 48774U 21045H   26043.17877438  .00000116  00000+0  27471-3 0  9993
2 48774  87.8974 284.1820 0001135  86.0851 274.0409 13.15550149227920
ONEWEB-0222             
1 48775U 21045J   26043.16213265 -.00000135  00000+0 -39266-3 0  9993
2 48775  87.8985 284.1431 0001435  86.3913 273.7382 13.15549307227960
ONEWEB-0244             
1 48776U 21045K   26043.18828903  .00000191  00000+0  47319-3 0  9995
2 48776  87.8984 284.1279 0001385  85.9785 274.1504 13.15549666228539
ONEWEB-0247             
1 48777U 21045L   26043.18510143  .00000152  00000+0  36964-3 0  9991
2 48777  87.8970 284.1749 0000675 103.0662 257.0544 13.15551571227973
ONEWEB-0245             
1 48778U 21045M   26043.10430870  .00000147  00000+0  35722-3 0  9997
2 48778  87.8978 284.1606 0001566  90.9529 269.1781 13.15549238227930
ONEWEB-0229             
1 48779U 21045N   26043.17560912  .00000080  00000+0  17919-3 0  9990
2 48779  87.8981 284.1439 0001401  80.4030 279.7258 13.15549913227978
ONEWEB-0228             
1 48780U 21045P   26043.13296485  .00000054  00000+0  10940-3 0  9997
2 48780  87.8990 284.1399 0001416  84.4408 275.6884 13.15549258227886
ONEWEB-0232             
1 48781U 21045Q   26043.18353360  .00000144  00000+0  34883-3 0  9991
2 48781  87.8991 284.1271 0001492  83.8022 276.3279 13.15549348228210
ONEWEB-0231             
1 48782U 21045R   26043.16135784 -.00000018  00000+0 -80551-4 0  9994
2 48782  87.8977 284.1631 0001383  91.8102 268.3187 13.15549777227902
ONEWEB-0234             
1 48783U 21045S   26043.19925209  .00000125  00000+0  29848-3 0  9995
2 48783  87.8979 284.1324 0002331  94.2006 265.9391 13.15548728228049
ONEWEB-0238             
1 48784U 21045T   26043.19951528  .00000110  00000+0  25932-3 0  9993
2 48784  87.8984 284.1256 0001889  84.9913 275.1433 13.15548686227941
ONEWEB-0240             
1 48785U 21045U   26043.14470427 -.00000076  00000+0 -23484-3 0  9996
2 48785  87.8985 284.1361 0001503  97.1623 262.9679 13.15546787227965
